[{"OBJECT_NAME":"STARLINK-36728","OBJECT_ID":"2026-036Z","EPOCH":"2026-03-22T04:00:01.999584","MEAN_MOTION":15.4729009,"ECCENTRICITY":0.00014062,"INCLINATION":42.9999,"RA_OF_ASC_NODE":175.0983,"ARG_OF_PERICENTER":278.7837,"MEAN_ANOMALY":192.0555,"EPHEMERIS_TYPE":0,"CLASSIFICATION_TYPE":"U","NORAD_CAT_ID":67927,"ELEMENT_SET_NO":999,"REV_AT_EPOCH":565,"BSTAR":-0.040810805,"MEAN_MOTION_DOT":-0.01912945,"MEAN_MOTION_DDOT":0},{"OBJECT_NAME":"STARLINK-36771","OBJECT_ID":"2026-036AA","EPOCH":"2026-03-22T00:00:02.000160","MEAN_MOTION":15.49739616,"ECCENTRICITY":0.00010704,"INCLINATION":43.0001,"RA_OF_ASC_NODE":176.1907,"ARG_OF_PERICENTER":253.7779,"MEAN_ANOMALY":318.0757,"EPHEMERIS_TYPE":0,"CLASSIFICATION_TYPE":"U","NORAD_CAT_ID":67928,"ELEMENT_SET_NO":999,"REV_AT_EPOCH":562,"BSTAR":-0.037840499,"MEAN_MOTION_DOT":-0.01931945,"MEAN_MOTION_DDOT":0},{"OBJECT_NAME":"STARLINK-36809","OBJECT_ID":"2026-036AB","EPOCH":"2026-03-22T00:00:02.000160","MEAN_MOTION":15.49866238,"ECCENTRICITY":9.308e-5,"INCLINATION":43,"RA_OF_ASC_NODE":176.1676,"ARG_OF_PERICENTER":257.6412,"MEAN_ANOMALY":323.5087,"EPHEMERIS_TYPE":0,"CLASSIFICATION_TYPE":"U","NORAD_CAT_ID":67929,"ELEMENT_SET_NO":999,"REV_AT_EPOCH":562,"BSTAR":-0.037381803,"MEAN_MOTION_DOT":-0.01918609,"MEAN_MOTION_DDOT":0},{"OBJECT_NAME":"STARLINK-36865","OBJECT_ID":"2026-036AC","EPOCH":"2026-03-22T04:00:01.999584","MEAN_MOTION":15.45814235,"ECCENTRICITY":0.00013325,"INCLINATION":42.9997,"RA_OF_ASC_NODE":174.8872,"ARG_OF_PERICENTER":272.562,"MEAN_ANOMALY":283.7663,"EPHEMERIS_TYPE":0,"CLASSIFICATION_TYPE":"U","NORAD_CAT_ID":67930,"ELEMENT_SET_NO":999,"REV_AT_EPOCH":565,"BSTAR":-0.041593884,"MEAN_MOTION_DOT":-0.01857848,"MEAN_MOTION_DDOT":0},{"OBJECT_NAME":"STARLINK-36781","OBJECT_ID":"2026-036AD","EPOCH":"2026-03-22T04:00:01.999584","MEAN_MOTION":15.45211975,"ECCENTRICITY":0.00014398,"INCLINATION":42.9993,"RA_OF_ASC_NODE":174.9445,"ARG_OF_PERICENTER":275.5951,"MEAN_ANOMALY":257.6395,"EPHEMERIS_TYPE":0,"CLASSIFICATION_TYPE":"U","NORAD_CAT_ID":67931,"ELEMENT_SET_NO":999,"REV_AT_EPOCH":565,"BSTAR":-0.044112043,"MEAN_MOTION_DOT":-0.01922325,"MEAN_MOTION_DDOT":0},{"OBJECT_NAME":"STARLINK-36301","OBJECT_ID":"2026-037A","EPOCH":"2026-03-22T04:00:01.999584","MEAN_MOTION":15.64234427,"ECCENTRICITY":0.00014192,"INCLINATION":42.9993,"RA_OF_ASC_NODE":122.4533,"ARG_OF_PERICENTER":269.68,"MEAN_ANOMALY":92.2167,"EPHEMERIS_TYPE":0,"CLASSIFICATION_TYPE":"U","NORAD_CAT_ID":67932,"ELEMENT_SET_NO":999,"REV_AT_EPOCH":511,"BSTAR":-0.022504888,"MEAN_MOTION_DOT":-0.01946304,"MEAN_MOTION_DDOT":0},{"OBJECT_NAME":"STARLINK-36852","OBJECT_ID":"2026-037B","EPOCH":"2026-03-22T04:00:01.999584","MEAN_MOTION":15.5051038,"ECCENTRICITY":8.319e-5,"INCLINATION":42.9994,"RA_OF_ASC_NODE":123.3924,"ARG_OF_PERICENTER":251.8627,"MEAN_ANOMALY":91.3245,"EPHEMERIS_TYPE":0,"CLASSIFICATION_TYPE":"U","NORAD_CAT_ID":67933,"ELEMENT_SET_NO":999,"REV_AT_EPOCH":520,"BSTAR":0.0013236599,"MEAN_MOTION_DOT":0.00077896,"MEAN_MOTION_DDOT":0},{"OBJECT_NAME":"STARLINK-36861","OBJECT_ID":"2026-037C","EPOCH":"2026-03-22T04:00:01.999584","MEAN_MOTION":15.60172609,"ECCENTRICITY":0.00013931,"INCLINATION":42.9995,"RA_OF_ASC_NODE":122.6037,"ARG_OF_PERICENTER":265.779,"MEAN_ANOMALY":35.5075,"EPHEMERIS_TYPE":0,"CLASSIFICATION_TYPE":"U","NORAD_CAT_ID":67934,"ELEMENT_SET_NO":999,"REV_AT_EPOCH":520,"BSTAR":-0.02601744,"MEAN_MOTION_DOT":-0.01920561,"MEAN_MOTION_DDOT":0},{"OBJECT_NAME":"STARLINK-36860","OBJECT_ID":"2026-037D","EPOCH":"2026-03-22T04:00:01.999584","MEAN_MOTION":15.52865515,"ECCENTRICITY":8.634e-5,"INCLINATION":42.9992,"RA_OF_ASC_NODE":123.004,"ARG_OF_PERICENTER":260.4317,"MEAN_ANOMALY":239.7427,"EPHEMERIS_TYPE":0,"CLASSIFICATION_TYPE":"U","NORAD_CAT_ID":67935,"ELEMENT_SET_NO":999,"REV_AT_EPOCH":520,"BSTAR":-0.039122313,"MEAN_MOTION_DOT":-0.02200541,"MEAN_MOTION_DDOT":0},{"OBJECT_NAME":"STARLINK-36848","OBJECT_ID":"2026-037E","EPOCH":"2026-03-22T04:00:01.999584","MEAN_MOTION":15.50521398,"ECCENTRICITY":0.00013505,"INCLINATION":42.9991,"RA_OF_ASC_NODE":123.1426,"ARG_OF_PERICENTER":280.0327,"MEAN_ANOMALY":163.5238,"EPHEMERIS_TYPE":0,"CLASSIFICATION_TYPE":"U","NORAD_CAT_ID":67936,"ELEMENT_SET_NO":999,"REV_AT_EPOCH":520,"BSTAR":0.0010428438,"MEAN_MOTION_DOT":0.0006119,"MEAN_MOTION_DDOT":0},{"OBJECT_NAME":"STARLINK-36370","OBJECT_ID":"2026-037F","EPOCH":"2026-03-22T04:00:01.999584","MEAN_MOTION":15.53534744,"ECCENTRICITY":9.135e-5,"INCLINATION":42.9988,"RA_OF_ASC_NODE":122.9396,"ARG_OF_PERICENTER":271.2519,"MEAN_ANOMALY":255.2843,"EPHEMERIS_TYPE":0,"CLASSIFICATION_TYPE":"U","NORAD_CAT_ID":67937,"ELEMENT_SET_NO":999,"REV_AT_EPOCH":520,"BSTAR":-0.031596434,"MEAN_MOTION_DOT":-0.01827051,"MEAN_MOTION_DDOT":0},{"OBJECT_NAME":"STARLINK-36371","OBJECT_ID":"2026-037G","EPOCH":"2026-03-22T04:00:01.999584","MEAN_MOTION":15.57438902,"ECCENTRICITY":0.00011352,"INCLINATION":42.9988,"RA_OF_ASC_NODE":122.6963,"ARG_OF_PERICENTER":260.4589,"MEAN_ANOMALY":3.5033,"EPHEMERIS_TYPE":0,"CLASSIFICATION_TYPE":"U","NORAD_CAT_ID":67938,"ELEMENT_SET_NO":999,"REV_AT_EPOCH":520,"BSTAR":-0.028462909,"MEAN_MOTION_DOT":-0.01895195,"MEAN_MOTION_DDOT":0},{"OBJECT_NAME":"STARLINK-36246","OBJECT_ID":"2026-037H","EPOCH":"2026-03-22T04:00:01.999584","MEAN_MOTION":15.50669247,"ECCENTRICITY":0.00014121,"INCLINATION":42.9991,"RA_OF_ASC_NODE":123.0674,"ARG_OF_PERICENTER":279.3038,"MEAN_ANOMALY":194.5509,"EPHEMERIS_TYPE":0,"CLASSIFICATION_TYPE":"U","NORAD_CAT_ID":67939,"ELEMENT_SET_NO":999,"REV_AT_EPOCH":511,"BSTAR":-0.0033102972,"MEAN_MOTION_DOT":-0.00190504,"MEAN_MOTION_DDOT":0},{"OBJECT_NAME":"STARLINK-36907","OBJECT_ID":"2026-037J","EPOCH":"2026-03-22T04:00:01.999584","MEAN_MOTION":15.62367479,"ECCENTRICITY":0.00014555,"INCLINATION":42.9994,"RA_OF_ASC_NODE":122.4198,"ARG_OF_PERICENTER":270.352,"MEAN_ANOMALY":104.5322,"EPHEMERIS_TYPE":0,"CLASSIFICATION_TYPE":"U","NORAD_CAT_ID":67940,"ELEMENT_SET_NO":999,"REV_AT_EPOCH":520,"BSTAR":-0.02357402,"MEAN_MOTION_DOT":-0.0189906,"MEAN_MOTION_DDOT":0},{"OBJECT_NAME":"STARLINK-36927","OBJECT_ID":"2026-037K","EPOCH":"2026-03-22T04:00:01.999584","MEAN_MOTION":15.59570126,"ECCENTRICITY":0.0001359,"INCLINATION":42.9994,"RA_OF_ASC_NODE":122.5244,"ARG_OF_PERICENTER":263.5688,"MEAN_ANOMALY":69.0103,"EPHEMERIS_TYPE":0,"CLASSIFICATION_TYPE":"U","NORAD_CAT_ID":67941,"ELEMENT_SET_NO":999,"REV_AT_EPOCH":520,"BSTAR":-0.026541748,"MEAN_MOTION_DOT":-0.01914879,"MEAN_MOTION_DDOT":0},{"OBJECT_NAME":"STARLINK-36914","OBJECT_ID":"2026-037L","EPOCH":"2026-03-22T04:00:01.999584","MEAN_MOTION":15.66569085,"ECCENTRICITY":0.00011594,"INCLINATION":42.9995,"RA_OF_ASC_NODE":122.2843,"ARG_OF_PERICENTER":278.4287,"MEAN_ANOMALY":151.093,"EPHEMERIS_TYPE":0,"CLASSIFICATION_TYPE":"U","NORAD_CAT_ID":67942,"ELEMENT_SET_NO":999,"REV_AT_EPOCH":520,"BSTAR":-0.020496618,"MEAN_MOTION_DOT":-0.01947955,"MEAN_MOTION_DDOT":0}]
